NIMIQ 2                 
1 27632U 02062A   26061.56645257 -.00000081  00000+0  00000+0 0  9993
2 27632   9.2001  58.0030 0006514 286.4807 270.5810  1.00272452 43116
ANIK F2                 
1 28378U 04027A   26062.13662683 -.00000064  00000+0  00000+0 0  9991
2 28378   3.0108  80.8713 0002969 294.6536  83.4418  1.00272153 40205
ANIK F1R                
1 28868U 05036A   26062.13740683 -.00000089  00000+0  00000+0 0  9990
2 28868   4.0417  77.9080 0002813 297.0561  88.1095  1.00271961 45394
ANIK F3                 
1 31102U 07009A   26062.15720559 -.00000016  00000+0  00000+0 0  9999
2 31102   0.9236  85.2286 0002793 262.0831 111.4931  1.00273103 45504
NIMIQ 4                 
1 33373U 08044A   26062.14280992 -.00000236  00000+0  00000+0 0  9996
2 33373   0.0270 102.7452 0002326 252.1131 135.4465  1.00270593 63924
TELSTAR 11N             
1 34111U 09009A   26061.86596177 -.00000267  00000+0  00000+0 0  9996
2 34111   0.0191 129.6322 0002463 198.4214 106.7670  1.00272907 45174
TERRESTAR-1             
1 35496U 09035A   26062.03864125 -.00000069  00000+0  00000+0 0  9993
2 35496   5.0957  48.8325 0002904 299.6620  75.2154  1.00270517 61075
NIMIQ 5                 
1 35873U 09050A   26062.14280992 -.00000272  00000+0  00000+0 0  9991
2 35873   0.0560 271.8669 0002678  73.4888 154.2346  1.00269984 60289
SKYTERRA 1              
1 37218U 10061A   26062.06723702 -.00000131  00000+0  00000+0 0  9996
2 37218   4.8995  50.9143 0001611 289.0118 103.7752  1.00271382 56132
TELSTAR 14R             
1 37602U 11021A   26061.86093507 -.00000296  00000+0  00000+0 0  9992
2 37602   0.0400 274.7134 0002429  73.9518  58.8818  1.00272657 54762
NIMIQ 6                 
1 38342U 12026A   26062.14836481 -.00000189  00000+0  00000+0 0  9999
2 38342   0.0582 279.1941 0002648  57.2000 146.8210  1.00271024 49354
ANIK G1                 
1 39127U 13014A   26062.15947694 -.00000090  00000+0  00000+0 0  9990
2 39127   0.0581 271.3572 0003096  48.8822 150.7806  1.00271533 47195
TELSTAR 12V             
1 41036U 15068A   26062.08436655 -.00000135  00000+0  00000+0 0  9995
2 41036   0.0177 106.4311 0002633 239.8234 189.9566  1.00271428 37562
VIASAT-2                
1 42740U 17029A   26062.13725227 -.00000281  00000+0  00000+0 0  9991
2 42740   0.0256 248.6032 0000654 120.2637 131.5390  1.00270818 32142
LEO 1 (LEO VANTAGE 1)   
1 43113U 18004C   26062.09122203  .00004956  00000+0  34451-3 0  9993
2 43113  99.2488 326.5545 0353452  45.0934 317.8382 14.67106298421925
TELSTAR 19V             
1 43562U 18059A   26062.13725227 -.00000295  00000+0  00000+0 0  9993
2 43562   0.0205 160.5531 0000510 257.2418  89.4928  1.00270788 28086
TELSTAR 18V             
1 43611U 18069A   26061.97198990 -.00000310  00000+0  00000+0 0  9999
2 43611   0.0239 245.8242 0002088  93.4007 309.4255  1.00271646 27564
