[{"OBJECT_NAME":"NIMIQ 2","OBJECT_ID":"2002-062A","EPOCH":"2026-03-02T13:35:41.502048","MEAN_MOTION":1.00272452,"ECCENTRICITY":0.00065143,"INCLINATION":9.2001,"RA_OF_ASC_NODE":58.003,"ARG_OF_PERICENTER":286.4807,"MEAN_ANOMALY":270.581,"EPHEMERIS_TYPE":0,"CLASSIFICATION_TYPE":"U","NORAD_CAT_ID":27632,"ELEMENT_SET_NO":999,"REV_AT_EPOCH":4311,"BSTAR":0,"MEAN_MOTION_DOT":-8.1e-7,"MEAN_MOTION_DDOT":0},{"OBJECT_NAME":"ANIK F2","OBJECT_ID":"2004-027A","EPOCH":"2026-03-03T03:16:44.558112","MEAN_MOTION":1.00272153,"ECCENTRICITY":0.0002969,"INCLINATION":3.0108,"RA_OF_ASC_NODE":80.8713,"ARG_OF_PERICENTER":294.6536,"MEAN_ANOMALY":83.4418,"EPHEMERIS_TYPE":0,"CLASSIFICATION_TYPE":"U","NORAD_CAT_ID":28378,"ELEMENT_SET_NO":999,"REV_AT_EPOCH":4020,"BSTAR":0,"MEAN_MOTION_DOT":-6.4e-7,"MEAN_MOTION_DDOT":0},{"OBJECT_NAME":"ANIK F1R","OBJECT_ID":"2005-036A","EPOCH":"2026-03-03T03:17:51.950112","MEAN_MOTION":1.00271961,"ECCENTRICITY":0.0002813,"INCLINATION":4.0417,"RA_OF_ASC_NODE":77.908,"ARG_OF_PERICENTER":297.0561,"MEAN_ANOMALY":88.1095,"EPHEMERIS_TYPE":0,"CLASSIFICATION_TYPE":"U","NORAD_CAT_ID":28868,"ELEMENT_SET_NO":999,"REV_AT_EPOCH":4539,"BSTAR":0,"MEAN_MOTION_DOT":-8.9e-7,"MEAN_MOTION_DDOT":0},{"OBJECT_NAME":"ANIK F3","OBJECT_ID":"2007-009A","EPOCH":"2026-03-03T03:46:22.562976","MEAN_MOTION":1.00273103,"ECCENTRICITY":0.0002793,"INCLINATION":0.9236,"RA_OF_ASC_NODE":85.2286,"ARG_OF_PERICENTER":262.0831,"MEAN_ANOMALY":111.4931,"EPHEMERIS_TYPE":0,"CLASSIFICATION_TYPE":"U","NORAD_CAT_ID":31102,"ELEMENT_SET_NO":999,"REV_AT_EPOCH":4550,"BSTAR":0,"MEAN_MOTION_DOT":-1.6e-7,"MEAN_MOTION_DDOT":0},{"OBJECT_NAME":"NIMIQ 4","OBJECT_ID":"2008-044A","EPOCH":"2026-03-03T03:25:38.777088","MEAN_MOTION":1.00270593,"ECCENTRICITY":0.0002326,"INCLINATION":0.027,"RA_OF_ASC_NODE":102.7452,"ARG_OF_PERICENTER":252.1131,"MEAN_ANOMALY":135.4465,"EPHEMERIS_TYPE":0,"CLASSIFICATION_TYPE":"U","NORAD_CAT_ID":33373,"ELEMENT_SET_NO":999,"REV_AT_EPOCH":6392,"BSTAR":0,"MEAN_MOTION_DOT":-2.36e-6,"MEAN_MOTION_DDOT":0},{"OBJECT_NAME":"TELSTAR 11N","OBJECT_ID":"2009-009A","EPOCH":"2026-03-02T20:46:59.096928","MEAN_MOTION":1.00272907,"ECCENTRICITY":0.0002463,"INCLINATION":0.0191,"RA_OF_ASC_NODE":129.6322,"ARG_OF_PERICENTER":198.4214,"MEAN_ANOMALY":106.767,"EPHEMERIS_TYPE":0,"CLASSIFICATION_TYPE":"U","NORAD_CAT_ID":34111,"ELEMENT_SET_NO":999,"REV_AT_EPOCH":4517,"BSTAR":0,"MEAN_MOTION_DOT":-2.67e-6,"MEAN_MOTION_DDOT":0},{"OBJECT_NAME":"TERRESTAR-1","OBJECT_ID":"2009-035A","EPOCH":"2026-03-03T00:55:38.604000","MEAN_MOTION":1.00270517,"ECCENTRICITY":0.0002904,"INCLINATION":5.0957,"RA_OF_ASC_NODE":48.8325,"ARG_OF_PERICENTER":299.662,"MEAN_ANOMALY":75.2154,"EPHEMERIS_TYPE":0,"CLASSIFICATION_TYPE":"U","NORAD_CAT_ID":35496,"ELEMENT_SET_NO":999,"REV_AT_EPOCH":6107,"BSTAR":0,"MEAN_MOTION_DOT":-6.9e-7,"MEAN_MOTION_DDOT":0},{"OBJECT_NAME":"NIMIQ 5","OBJECT_ID":"2009-050A","EPOCH":"2026-03-03T03:25:38.777088","MEAN_MOTION":1.00269984,"ECCENTRICITY":0.0002678,"INCLINATION":0.056,"RA_OF_ASC_NODE":271.8669,"ARG_OF_PERICENTER":73.4888,"MEAN_ANOMALY":154.2346,"EPHEMERIS_TYPE":0,"CLASSIFICATION_TYPE":"U","NORAD_CAT_ID":35873,"ELEMENT_SET_NO":999,"REV_AT_EPOCH":6028,"BSTAR":0,"MEAN_MOTION_DOT":-2.72e-6,"MEAN_MOTION_DDOT":0},{"OBJECT_NAME":"SKYTERRA 1","OBJECT_ID":"2010-061A","EPOCH":"2026-03-03T01:36:49.278528","MEAN_MOTION":1.00271382,"ECCENTRICITY":0.0001611,"INCLINATION":4.8995,"RA_OF_ASC_NODE":50.9143,"ARG_OF_PERICENTER":289.0118,"MEAN_ANOMALY":103.7752,"EPHEMERIS_TYPE":0,"CLASSIFICATION_TYPE":"U","NORAD_CAT_ID":37218,"ELEMENT_SET_NO":999,"REV_AT_EPOCH":5613,"BSTAR":0,"MEAN_MOTION_DOT":-1.31e-6,"MEAN_MOTION_DDOT":0},{"OBJECT_NAME":"TELSTAR 14R","OBJECT_ID":"2011-021A","EPOCH":"2026-03-02T20:39:44.790048","MEAN_MOTION":1.00272657,"ECCENTRICITY":0.0002429,"INCLINATION":0.04,"RA_OF_ASC_NODE":274.7134,"ARG_OF_PERICENTER":73.9518,"MEAN_ANOMALY":58.8818,"EPHEMERIS_TYPE":0,"CLASSIFICATION_TYPE":"U","NORAD_CAT_ID":37602,"ELEMENT_SET_NO":999,"REV_AT_EPOCH":5476,"BSTAR":0,"MEAN_MOTION_DOT":-2.96e-6,"MEAN_MOTION_DDOT":0},{"OBJECT_NAME":"NIMIQ 6","OBJECT_ID":"2012-026A","EPOCH":"2026-03-03T03:33:38.719584","MEAN_MOTION":1.00271024,"ECCENTRICITY":0.0002648,"INCLINATION":0.0582,"RA_OF_ASC_NODE":279.1941,"ARG_OF_PERICENTER":57.2,"MEAN_ANOMALY":146.821,"EPHEMERIS_TYPE":0,"CLASSIFICATION_TYPE":"U","NORAD_CAT_ID":38342,"ELEMENT_SET_NO":999,"REV_AT_EPOCH":4935,"BSTAR":0,"MEAN_MOTION_DOT":-1.89e-6,"MEAN_MOTION_DDOT":0},{"OBJECT_NAME":"ANIK G1","OBJECT_ID":"2013-014A","EPOCH":"2026-03-03T03:49:38.807616","MEAN_MOTION":1.00271533,"ECCENTRICITY":0.0003096,"INCLINATION":0.0581,"RA_OF_ASC_NODE":271.3572,"ARG_OF_PERICENTER":48.8822,"MEAN_ANOMALY":150.7806,"EPHEMERIS_TYPE":0,"CLASSIFICATION_TYPE":"U","NORAD_CAT_ID":39127,"ELEMENT_SET_NO":999,"REV_AT_EPOCH":4719,"BSTAR":0,"MEAN_MOTION_DOT":-9.0e-7,"MEAN_MOTION_DDOT":0},{"OBJECT_NAME":"TELSTAR 12V","OBJECT_ID":"2015-068A","EPOCH":"2026-03-03T02:01:29.269920","MEAN_MOTION":1.00271428,"ECCENTRICITY":0.0002633,"INCLINATION":0.0177,"RA_OF_ASC_NODE":106.4311,"ARG_OF_PERICENTER":239.8234,"MEAN_ANOMALY":189.9566,"EPHEMERIS_TYPE":0,"CLASSIFICATION_TYPE":"U","NORAD_CAT_ID":41036,"ELEMENT_SET_NO":999,"REV_AT_EPOCH":3756,"BSTAR":0,"MEAN_MOTION_DOT":-1.35e-6,"MEAN_MOTION_DDOT":0},{"OBJECT_NAME":"VIASAT-2","OBJECT_ID":"2017-029A","EPOCH":"2026-03-03T03:17:38.596128","MEAN_MOTION":1.00270818,"ECCENTRICITY":6.54e-5,"INCLINATION":0.0256,"RA_OF_ASC_NODE":248.6032,"ARG_OF_PERICENTER":120.2637,"MEAN_ANOMALY":131.539,"EPHEMERIS_TYPE":0,"CLASSIFICATION_TYPE":"U","NORAD_CAT_ID":42740,"ELEMENT_SET_NO":999,"REV_AT_EPOCH":3214,"BSTAR":0,"MEAN_MOTION_DOT":-2.81e-6,"MEAN_MOTION_DDOT":0},{"OBJECT_NAME":"LEO 1 (LEO VANTAGE 1)","OBJECT_ID":"2018-004C","EPOCH":"2026-03-03T02:11:21.583392","MEAN_MOTION":14.67106298,"ECCENTRICITY":0.0353452,"INCLINATION":99.2488,"RA_OF_ASC_NODE":326.5545,"ARG_OF_PERICENTER":45.0934,"MEAN_ANOMALY":317.8382,"EPHEMERIS_TYPE":0,"CLASSIFICATION_TYPE":"U","NORAD_CAT_ID":43113,"ELEMENT_SET_NO":999,"REV_AT_EPOCH":42192,"BSTAR":0.00034451,"MEAN_MOTION_DOT":4.956e-5,"MEAN_MOTION_DDOT":0},{"OBJECT_NAME":"TELSTAR 19V","OBJECT_ID":"2018-059A","EPOCH":"2026-03-03T03:17:38.596128","MEAN_MOTION":1.00270788,"ECCENTRICITY":5.1e-5,"INCLINATION":0.0205,"RA_OF_ASC_NODE":160.5531,"ARG_OF_PERICENTER":257.2418,"MEAN_ANOMALY":89.4928,"EPHEMERIS_TYPE":0,"CLASSIFICATION_TYPE":"U","NORAD_CAT_ID":43562,"ELEMENT_SET_NO":999,"REV_AT_EPOCH":2808,"BSTAR":0,"MEAN_MOTION_DOT":-2.95e-6,"MEAN_MOTION_DDOT":0},{"OBJECT_NAME":"TELSTAR 18V","OBJECT_ID":"2018-069A","EPOCH":"2026-03-02T23:19:39.927360","MEAN_MOTION":1.00271646,"ECCENTRICITY":0.0002088,"INCLINATION":0.0239,"RA_OF_ASC_NODE":245.8242,"ARG_OF_PERICENTER":93.4007,"MEAN_ANOMALY":309.4255,"EPHEMERIS_TYPE":0,"CLASSIFICATION_TYPE":"U","NORAD_CAT_ID":43611,"ELEMENT_SET_NO":999,"REV_AT_EPOCH":2756,"BSTAR":0,"MEAN_MOTION_DOT":-3.1e-6,"MEAN_MOTION_DDOT":0}]
